HULIANWANG DIGUI-146    
1 67522U 26013A   26035.05410670  .00000009  00000+0  12649-3 0  9996
2 67522  50.0080 121.9967 0000215 280.9138  79.1736 13.89375976  2206
HULIANWANG DIGUI-147    
1 67523U 26013B   26027.66313970 -.00000123  00000+0  18037-4 0  9996
2 67523  50.0086 151.5449 0010772 261.1838  98.7844 13.97615600  1176
HULIANWANG DIGUI-148    
1 67524U 26013C   26021.44230141 -.00000137  00000+0  86600-5 0  9992
2 67524  50.0070 176.6144 0010785 240.3737 119.6091 13.98087765   308
HULIANWANG DIGUI-149    
1 67525U 26013D   26021.15633713 -.00000091  00000+0  40401-4 0  9990
2 67525  50.0063 177.7692 0010538 247.0477 112.9313 13.98123959   266
HULIANWANG DIGUI-150    
1 67526U 26013E   26025.15851686 -.00000115  00000+0  23740-4 0  9990
2 67526  50.0096 161.6201 0010015 258.6345 101.3432 13.98253437   846
HULIANWANG DIGUI-151    
1 67527U 26013F   26021.15608316 -.00000614  00000+0 -32354-3 0  9992
2 67527  50.0035 177.7600 0009841 238.6748 121.3191 13.98327198   267
HULIANWANG DIGUI-152    
1 67528U 26013G   26024.08719212 -.00000118  00000+0  21603-4 0  9990
2 67528  50.0047 165.9375 0009745 257.1222 102.8592 13.97836723   677
HULIANWANG DIGUI-153    
1 67529U 26013H   26021.87048088 -.00000100  00000+0  34277-4 0  9993
2 67529  50.0018 174.8698 0008966 242.4962 117.5029 13.98474895   357
HULIANWANG DIGUI-154    
1 67530U 26013J   26021.22721932 -.00000008  00000+0  98151-4 0  9998
2 67530  50.0045 177.4718 0008317 246.2151 113.7880 13.98568419   262
CZ-12 R/B               
1 67531U 26013K   26029.54311800  .00000271  00000+0  21651-3 0  9992
2 67531  49.9902 142.8353 0069060 163.0056 197.3188 14.14454871  1440
STARLINK-36587          
1 67532U 26014A   26035.16668981 -.00126273  00000+0 -66572-3 0  9998
2 67532  97.2807 278.3519 0001723  91.5211 138.5616 15.80890881  3309
STARLINK-36417          
1 67533U 26014B   26035.16668981 -.00068135  00000+0 -35699-3 0  9997
2 67533  97.2802 278.3527 0001423  91.8657 141.0762 15.80861685  3309
STARLINK-36576          
1 67534U 26014C   26035.16668981 -.00056731  00000+0 -29673-3 0  9992
2 67534  97.2800 278.3545 0001554  95.9476 142.0343 15.80861535  3307
STARLINK-36574          
1 67535U 26014D   26035.16668981 -.00033074  00000+0 -17244-3 0  9999
2 67535  97.2798 278.3571 0001011  94.7651 150.5095 15.80833911  3308
STARLINK-36572          
1 67536U 26014E   26035.16668981 -.00086121  00000+0 -45183-3 0  9994
2 67536  97.2798 278.3600 0000808  89.4342 162.5807 15.80888484  3302
STARLINK-36561          
1 67537U 26014F   26035.16668981  .00027275  00000+0  14273-3 0  9994
2 67537  97.2793 278.3626 0001478 105.3340 152.2290 15.80809311  3300
STARLINK-36397          
1 67538U 26014G   26035.16668981 -.00190425  00000+0 -10111-2 0  9991
2 67538  97.2788 278.3635 0001095  89.8716 172.5494 15.80904673  3301
STARLINK-36573          
1 67539U 26014H   26035.16668981 -.00033969  00000+0 -17719-3 0  9993
2 67539  97.2788 278.3661 0001145 109.7917 158.8118 15.80828508  3304
STARLINK-36585          
1 67540U 26014J   26035.16668981  .00107698  00000+0  55662-3 0  9993
2 67540  97.2785 278.3683 0001561 117.0398 156.8693 15.80794551  3300
STARLINK-36579          
1 67541U 26014K   26035.16668981  .00194347  00000+0  99569-3 0  9995
2 67541  97.2789 278.3723 0001491 115.7741 165.3861 15.80754966  3307
STARLINK-35934          
1 67542U 26014L   26035.16668981  .00022362  00000+0  11721-3 0  9997
2 67542  97.2788 278.3754 0001480  85.8433 203.4416 15.80811655  3291
STARLINK-36581          
1 67543U 26014M   26035.16668981  .00032101  00000+0  16789-3 0  9999
2 67543  97.2786 278.3775 0001456  69.4767 226.5982 15.80792254  3303
STARLINK-36565          
1 67544U 26014N   26035.16668981 -.00100328  00000+0 -52845-3 0  9992
2 67544  97.2781 278.3800 0000876 121.6029 180.4592 15.80842732  3307
STARLINK-36583          
1 67545U 26014P   26035.16668981 -.00393686  00000+0 -21227-2 0  9993
2 67545  97.2779 278.3823 0001150  89.1808 218.8423 15.81080355  3304
STARLINK-36580          
1 67546U 26014Q   26035.16668981 -.00775475  00000+0 -43026-2 0  9995
2 67546  97.2776 278.3847 0001471  99.5546 216.0609 15.81398273  3305
STARLINK-36584          
1 67547U 26014R   26035.16668981 -.01028759  00000+0 -58139-2 0  9994
2 67547  97.2777 278.3873 0001140 102.3955 218.5354 15.81644540  3301
STARLINK-36586          
1 67548U 26014S   26035.16668981 -.01333465  00000+0 -75045-2 0  9993
2 67548  97.2784 278.3908 0001337 101.0870 227.3055 15.82005530  3306
STARLINK-36564          
1 67549U 26014T   26035.16668981 -.01491189  00000+0 -82312-2 0  9997
2 67549  97.2786 278.3937 0001240  87.3114 247.5408 15.82272885  3249
STARLINK-36563          
1 67550U 26014U   26035.16668981 -.01527912  00000+0 -83721-2 0  9998
2 67550  97.2776 278.3952 0001350  85.1855 256.0646 15.82497075  3303
STARLINK-36566          
1 67551U 26014V   26035.16668981 -.01480699  00000+0 -80172-2 0  9996
2 67551  97.2773 278.3979 0001125 101.6651 245.4061 15.82664772  3301
STARLINK-36567          
1 67552U 26014W   26035.16668981 -.01516971  00000+0 -81597-2 0  9992
2 67552  97.2770 278.3995 0001240  88.9100 264.0250 15.82870787  3303
STARLINK-36569          
1 67553U 26014X   26035.16668981 -.01516141  00000+0 -80571-2 0  9993
2 67553  97.2770 278.4030 0001219  91.4828 269.1502 15.83125655  3301
STARLINK-36395          
1 67554U 26014Y   26035.16668981 -.01526706  00000+0 -78639-2 0  9994
2 67554  97.2768 278.4118 0001253  88.9228 292.0752 15.83802273  3309
STARLINK-36559          
1 67555U 26014Z   26035.16668981 -.01523458  00000+0 -79218-2 0  9990
2 67555  97.2770 278.4092 0001288  86.2363 288.5631 15.83596928  3306
MR-1                    
1 67556U 26015A   26035.12985639  .00000081  00000+0  10375-3 0  9999
2 67556  88.9987 282.0723 0005051  98.8011 261.3713 13.52685741  1727
MR-2                    
1 67557U 26015B   26035.13008505  .00000045  00000+0  49414-4 0  9996
2 67557  88.9987 282.0725 0005131  97.8146 262.3588 13.52660679  1721
ELECTRON R/B            
1 67558U 26015C   26035.16666258  .01313078 -66753-6  12107-2 0  9991
2 67558  89.0020 281.7202 0547175 223.8936 131.7597 15.05280873  1908
ELECTRON KICK STAGE R/B 
1 67559U 26015D   26035.17914888  .00063420  17358-6  10787-2 0  9998
2 67559  89.0516 281.8553 0534191 291.0747  63.4152 14.66816851  1871
STARLINK-36426          
1 67560U 26014AA  26035.16668981 -.01531986  00000+0 -80760-2 0  9995
2 67560  97.2767 278.4052 0001425  90.5252 275.8926 15.83322770  2141
STARLINK-36621          
1 67561U 26016A   26035.16668981 -.01689843  00000+0 -74724-2 0  9997
2 67561  97.2817  93.8568 0001760  65.6967  46.7394 15.87235009  2660
STARLINK-36398          
1 67562U 26016B   26035.16668981 -.01670637  00000+0 -72882-2 0  9992
2 67562  97.2816  93.8591 0001703  64.1474  53.4472 15.87474371  2647
STARLINK-36403          
1 67563U 26016C   26035.16668981 -.01680716  00000+0 -72591-2 0  9999
2 67563  97.2818  93.8613 0001601  70.1067  51.9553 15.87695447  2751
STARLINK-36593          
1 67564U 26016D   26035.16668981 -.01666467  00000+0 -71020-2 0  9993
2 67564  97.2817  93.8633 0001637  69.3219  57.9508 15.87937713  2606
STARLINK-35725          
1 67565U 26016E   26035.16668981 -.01660050  00000+0 -70067-2 0  9996
2 67565  97.2812  93.8644 0001611  62.3405  68.8265 15.88120213  2652
STARLINK-36394          
1 67566U 26016F   26035.16668981 -.01660824  00000+0 -67474-2 0  9994
2 67566  97.2803  93.8710 0001656  69.1837  78.5575 15.88881739  2750
STARLINK-36352          
1 67567U 26016G   26035.16668981 -.01656278  00000+0 -68095-2 0  9993
2 67567  97.2804  93.8688 0001596  69.7681  73.0979 15.88638216  2660
STARLINK-36435          
1 67568U 26016H   26035.16668981 -.01650792  00000+0 -66336-2 0  9995
2 67568  97.2802  93.8729 0001614  75.4777  76.5919 15.89081923  2666
STARLINK-36575          
1 67569U 26016J   26035.16668981 -.01635930  00000+0 -64882-2 0  9997
2 67569  97.2800  93.8756 0001500  66.1945  90.7405 15.89317348  2664
STARLINK-36562          
1 67570U 26016K   26035.16668981 -.01859647  92753-3 -64708-2 0  9999
2 67570  97.2795  93.8768 0001723  73.0183  87.6053 15.89491034  2669
STARLINK-36578          
1 67571U 26016L   26035.16668981 -.01854406  92447-3 -63884-2 0  9992
2 67571  97.2795  93.8782 0001607  76.2538  88.5224 15.89690864  2646
STARLINK-36350          
1 67572U 26016M   26035.16668981 -.01864366  93615-3 -63404-2 0  9995
2 67572  97.2796  93.8804 0001695  67.2847 102.6028 15.89949295  2558
STARLINK-36588          
1 67573U 26016N   26035.16668981 -.01856305  93119-3 -62245-2 0  9991
2 67573  97.2786  93.8826 0001775  71.5753 104.0119 15.90229191  2718
STARLINK-36594          
1 67574U 26016P   26035.16668981 -.01833733  91156-3 -61006-2 0  9995
2 67574  97.2782  93.8834 0001533  78.7307 100.3403 15.90383177  2710
STARLINK-36400          
1 67575U 26016Q   26035.16668981 -.01845782  92453-3 -60822-2 0  9999
2 67575  97.2786  93.8858 0001599  80.0078 102.8956 15.90574189  2607
STARLINK-36591          
1 67576U 26016R   26035.16668981 -.01844331  92494-3 -60188-2 0  9999
2 67576  97.2780  93.8868 0001682  76.5664 110.2967 15.90765754  2668
STARLINK-36590          
1 67577U 26016S   26035.16668981 -.01837569  92020-3 -59448-2 0  9997
2 67577  97.2775  93.8884 0001578  73.3217 117.1631 15.90936870  2667
STARLINK-36613          
1 67578U 26016T   26035.16668981 -.01830905  91590-3 -58603-2 0  9998
2 67578  97.2772  93.8900 0001504  80.4770 114.3077 15.91146440  2666
STARLINK-36571          
1 67579U 26016U   26034.58335648 -.01725231  83891-3 -49118-2 0  9996
2 67579  97.2776  93.2645 0001509  83.6958  14.7931 15.93407640  2564
STARLINK-36612          
1 67580U 26016V   26034.58335648 -.01738502  85273-3 -48986-2 0  9991
2 67580  97.2775  93.2658 0001434  86.5142  15.6243 15.93607609  2566
